OBJECT_NAME,OBJECT_ID,EPOCH,MEAN_MOTION,ECCENTRICITY,INCLINATION,RA_OF_ASC_NODE,ARG_OF_PERICENTER,MEAN_ANOMALY,EPHEMERIS_TYPE,CLASSIFICATION_TYPE,NORAD_CAT_ID,ELEMENT_SET_NO,REV_AT_EPOCH,BSTAR,MEAN_MOTION_DOT,MEAN_MOTION_DDOT
TIANMU-1 21,2023-208C,2026-07-06T14:32:03.332832,15.35442201,.00059699,97.4519,307.4310,238.3024,121.7638,0,U,58662,999,14054,.25416753E-3,.8675E-4,0
TIANMU-1 22,2023-208D,2026-07-06T14:42:11.339136,15.31342921,.00022237,97.4513,303.9364,264.3787,95.7200,0,U,58663,999,14030,.20921153E-3,.6254E-4,0
TIANMU-1 15,2024-004A,2026-07-06T15:03:55.013184,15.26853379,.00056753,97.4675,13.8184,266.5635,93.4955,0,U,58700,999,13874,.18971802E-3,.4932E-4,0
TIANMU-1 16,2024-004B,2026-07-06T14:49:34.871808,15.26954787,.00043427,97.4622,13.0297,287.5052,72.5712,0,U,58701,999,13874,.17075833E-3,.4444E-4,0
TIANMU-1 17,2024-004C,2026-07-06T14:28:39.597312,15.26953136,.00039045,97.4649,13.5072,295.3406,64.7428,0,U,58702,999,13873,.18719509E-3,.4879E-4,0
TIANMU-1 18,2024-004D,2026-07-06T15:27:54.876960,15.26870850,.00033724,97.4666,13.8101,267.2747,92.8106,0,U,58703,999,13874,.18195603E-3,.4728E-4,0
INSAT-3DS,2024-033A,2026-07-06T14:11:00.868992,1.00272729,.00011422,0.0801,95.8287,18.0437,105.5166,0,U,58990,999,4726,0,-.141E-5,0
METEOR-M2 4,2024-039A,2026-07-06T14:20:51.706752,14.22431512,.00081471,98.7020,146.6528,110.1363,250.0692,0,U,59051,999,12202,.25572306E-4,.13E-6,0
GOES 19,2024-119A,2026-07-06T13:26:08.817792,1.00272767,.00004725,0.0422,216.9321,317.9319,236.0197,0,U,60133,999,715,0,-.234E-5,0
MTG-S1,2025-143A,2026-07-06T13:47:29.271840,1.00272482,.00032098,0.5894,342.9847,262.2466,245.7466,0,U,64723,999,361,0,.7E-7,0
METOP-SGA1,2025-172A,2026-07-06T04:00:23.518368,14.19818208,.00075687,98.6633,246.4932,359.2458,0.8706,0,U,65159,999,4648,.37239951E-4,.36E-6,0
FENGYUN 3H,2025-219A,2026-07-06T16:49:35.863392,14.19923910,.0001327,98.6770,128.0911,64.9068,295.2246,0,U,65815,999,4015,.46424E-4,.55E-6,0
